{
  "type": "FeatureCollection",
  "features": [
    {
      "type": "Feature",
      "properties": {
        "norad_id": 30436,
        "name": "FENGYUN 1C DEB",
        "group": "fengyun-1c-debris",
        "lat": -12.60509354091053,
        "lon": 63.776937860481794,
        "alt_km": 802.1296050585634,
        "timestamp": "2025-12-17T21:39:45.963519+00:00",
        "meta_object_name": "FENGYUN 1C DEB",
        "meta_object_id": "1999-025AEX",
        "meta_epoch": "2025-12-17T06:08:49.980192",
        "meta_mean_motion": 14.22327894,
        "meta_eccentricity": 0.00976597,
        "meta_inclination": 98.4269,
        "meta_ra_of_asc_node": 245.0585,
        "meta_arg_of_pericenter": 120.3024,
        "meta_mean_anomaly": 2.8998,
        "meta_ephemeris_type": 0,
        "meta_classification_type": "U",
        "meta_norad_cat_id": 30436,
        "meta_element_set_no": 999,
        "meta_rev_at_epoch": 96501,
        "meta_bstar": 0.001523729,
        "meta_mean_motion_dot": 3.518e-05,
        "meta_mean_motion_ddot": 0,
        "tle_line1": "1 30436U 99025AEX 25351.25613403  .00003518  00000+0  15237-2 0  9997",
        "tle_line2": "2 30436  98.4269 245.0585 0097659 120.3024   2.8998 14.22327894965012"
      },
      "geometry": {
        "type": "Point",
        "coordinates": [
          63.776937860481794,
          -12.60509354091053
        ]
      }
    },
    {
      "type": "Feature",
      "properties": {
        "norad_id": 30437,
        "name": "FENGYUN 1C DEB",
        "group": "fengyun-1c-debris",
        "lat": 57.5890481890544,
        "lon": -2.015632596003286,
        "alt_km": 575.6278220287295,
        "timestamp": "2025-12-17T21:39:45.963528+00:00",
        "meta_object_name": "FENGYUN 1C DEB",
        "meta_object_id": "1999-025AEY",
        "meta_epoch": "2025-12-17T15:29:50.997696",
        "meta_mean_motion": 14.88244731,
        "meta_eccentricity": 0.0035772,
        "meta_inclination": 98.9215,
        "meta_ra_of_asc_node": 12.0207,
        "meta_arg_of_pericenter": 86.9422,
        "meta_mean_anomaly": 36.5186,
        "meta_ephemeris_type": 0,
        "meta_classification_type": "U",
        "meta_norad_cat_id": 30437,
        "meta_element_set_no": 999,
        "meta_rev_at_epoch": 99260,
        "meta_bstar": 0.0017618736,
        "meta_mean_motion_dot": 0.00016426,
        "meta_mean_motion_ddot": 0,
        "tle_line1": "1 30437U 99025AEY 25351.64572914  .00016426  00000+0  17619-2 0  9990",
        "tle_line2": "2 30437  98.9215  12.0207 0035772  86.9422  36.5186 14.88244731992607"
      },
      "geometry": {
        "type": "Point",
        "coordinates": [
          -2.015632596003286,
          57.5890481890544
        ]
      }
    },
    {
      "type": "Feature",
      "properties": {
        "norad_id": 30438,
        "name": "FENGYUN 1C DEB",
        "group": "fengyun-1c-debris",
        "lat": -67.7821843365107,
        "lon": 166.49073790926343,
        "alt_km": 904.7501617506377,
        "timestamp": "2025-12-17T21:39:45.963537+00:00",
        "meta_object_name": "FENGYUN 1C DEB",
        "meta_object_id": "1999-025AEZ",
        "meta_epoch": "2025-12-17T11:51:05.018112",
        "meta_mean_motion": 13.92117575,
        "meta_eccentricity": 0.01348477,
        "meta_inclination": 98.7507,
        "meta_ra_of_asc_node": 8.258,
        "meta_arg_of_pericenter": 173.7487,
        "meta_mean_anomaly": 186.5396,
        "meta_ephemeris_type": 0,
        "meta_classification_type": "U",
        "meta_norad_cat_id": 30438,
        "meta_element_set_no": 999,
        "meta_rev_at_epoch": 95372,
        "meta_bstar": 0.0011851777,
        "meta_mean_motion_dot": 1.593e-05,
        "meta_mean_motion_ddot": 0,
        "tle_line1": "1 30438U 99025AEZ 25351.49380808  .00001593  00000+0  11852-2 0  9995",
        "tle_line2": "2 30438  98.7507   8.2580 0134847 173.7487 186.5396 13.92117575953728"
      },
      "geometry": {
        "type": "Point",
        "coordinates": [
          166.49073790926343,
          -67.7821843365107
        ]
      }
    },
    {
      "type": "Feature",
      "properties": {
        "norad_id": 30439,
        "name": "FENGYUN 1C DEB",
        "group": "fengyun-1c-debris",
        "lat": 52.149034278816956,
        "lon": -165.10379167825815,
        "alt_km": 885.3449436144392,
        "timestamp": "2025-12-17T21:39:45.963546+00:00",
        "meta_object_name": "FENGYUN 1C DEB",
        "meta_object_id": "1999-025AFA",
        "meta_epoch": "2025-12-17T07:29:51.868032",
        "meta_mean_motion": 14.08848498,
        "meta_eccentricity": 0.00385362,
        "meta_inclination": 98.7496,
        "meta_ra_of_asc_node": 2.893,
        "meta_arg_of_pericenter": 323.7095,
        "meta_mean_anomaly": 51.2931,
        "meta_ephemeris_type": 0,
        "meta_classification_type": "U",
        "meta_norad_cat_id": 30439,
        "meta_element_set_no": 999,
        "meta_rev_at_epoch": 96856,
        "meta_bstar": 0.00047285852,
        "meta_mean_motion_dot": 7.79e-06,
        "meta_mean_motion_ddot": 0,
        "tle_line1": "1 30439U 99025AFA 25351.31240588  .00000779  00000+0  47286-3 0  9993",
        "tle_line2": "2 30439  98.7496   2.8930 0038536 323.7095  51.2931 14.08848498968569"
      },
      "geometry": {
        "type": "Point",
        "coordinates": [
          -165.10379167825815,
          52.149034278816956
        ]
      }
    },
    {
      "type": "Feature",
      "properties": {
        "norad_id": 30441,
        "name": "FENGYUN 1C DEB",
        "group": "fengyun-1c-debris",
        "lat": -77.5919083933031,
        "lon": 128.06770414344086,
        "alt_km": 867.094659017077,
        "timestamp": "2025-12-17T21:39:45.963556+00:00",
        "meta_object_name": "FENGYUN 1C DEB",
        "meta_object_id": "1999-025AFC",
        "meta_epoch": "2025-12-17T11:35:48.039360",
        "meta_mean_motion": 13.77684781,
        "meta_eccentricity": 0.01840244,
        "meta_inclination": 99.1347,
        "meta_ra_of_asc_node": 80.6692,
        "meta_arg_of_pericenter": 245.084,
        "meta_mean_anomaly": 113.1088,
        "meta_ephemeris_type": 0,
        "meta_classification_type": "U",
        "meta_norad_cat_id": 30441,
        "meta_element_set_no": 999,
        "meta_rev_at_epoch": 94935,
        "meta_bstar": 0.00053615394,
        "meta_mean_motion_dot": 5.63e-06,
        "meta_mean_motion_ddot": 0,
        "tle_line1": "1 30441U 99025AFC 25351.48319490  .00000563  00000+0  53615-3 0  9997",
        "tle_line2": "2 30441  99.1347  80.6692 0184024 245.0840 113.1088 13.77684781949354"
      },
      "geometry": {
        "type": "Point",
        "coordinates": [
          128.06770414344086,
          -77.5919083933031
        ]
      }
    },
    {
      "type": "Feature",
      "properties": {
        "norad_id": 30442,
        "name": "FENGYUN 1C DEB",
        "group": "fengyun-1c-debris",
        "lat": -11.150764404243018,
        "lon": -96.181511966188,
        "alt_km": 794.1610062592217,
        "timestamp": "2025-12-17T21:39:45.963565+00:00",
        "meta_object_name": "FENGYUN 1C DEB",
        "meta_object_id": "1999-025AFD",
        "meta_epoch": "2025-12-17T05:38:14.123616",
        "meta_mean_motion": 14.28656262,
        "meta_eccentricity": 0.00552043,
        "meta_inclination": 98.8666,
        "meta_ra_of_asc_node": 84.9033,
        "meta_arg_of_pericenter": 274.271,
        "meta_mean_anomaly": 85.2163,
        "meta_ephemeris_type": 0,
        "meta_classification_type": "U",
        "meta_norad_cat_id": 30442,
        "meta_element_set_no": 999,
        "meta_rev_at_epoch": 97226,
        "meta_bstar": 0.0016136184,
        "meta_mean_motion_dot": 4.077e-05,
        "meta_mean_motion_ddot": 0,
        "tle_line1": "1 30442U 99025AFD 25351.23488569  .00004077  00000+0  16136-2 0  9995",
        "tle_line2": "2 30442  98.8666  84.9033 0055204 274.2710  85.2163 14.28656262972267"
      },
      "geometry": {
        "type": "Point",
        "coordinates": [
          -96.181511966188,
          -11.150764404243018
        ]
      }
    },
    {
      "type": "Feature",
      "properties": {
        "norad_id": 30443,
        "name": "FENGYUN 1C DEB",
        "group": "fengyun-1c-debris",
        "lat": 30.38713986901296,
        "lon": 124.40239588757345,
        "alt_km": 786.7385868506699,
        "timestamp": "2025-12-17T21:39:45.963574+00:00",
        "meta_object_name": "FENGYUN 1C DEB",
        "meta_object_id": "1999-025AFE",
        "meta_epoch": "2025-12-17T09:16:16.777920",
        "meta_mean_motion": 14.36858141,
        "meta_eccentricity": 0.00273709,
        "meta_inclination": 98.8481,
        "meta_ra_of_asc_node": 298.6311,
        "meta_arg_of_pericenter": 325.8834,
        "meta_mean_anomaly": 34.0591,
        "meta_ephemeris_type": 0,
        "meta_classification_type": "U",
        "meta_norad_cat_id": 30443,
        "meta_element_set_no": 999,
        "meta_rev_at_epoch": 97500,
        "meta_bstar": 0.0018344336,
        "meta_mean_motion_dot": 5.403e-05,
        "meta_mean_motion_ddot": 0,
        "tle_line1": "1 30443U 99025AFE 25351.38630530  .00005403  00000+0  18344-2 0  9996",
        "tle_line2": "2 30443  98.8481 298.6311 0027370 325.8834  34.0591 14.36858141975000"
      },
      "geometry": {
        "type": "Point",
        "coordinates": [
          124.40239588757345,
          30.38713986901296
        ]
      }
    }
  ]
}